{
  "type": "FeatureCollection",
  "features": [
    {
      "type": "Feature",
      "properties": {
        "norad_id": 19071,
        "name": "OSCAR 32",
        "group": "nnss",
        "lat": 82.99571309751339,
        "lon": -160.73681626656042,
        "alt_km": 1072.2929657268423,
        "timestamp": "2025-12-16T13:52:37.791968+00:00",
        "meta_object_name": "OSCAR 32",
        "meta_object_id": "1988-033B",
        "meta_epoch": "2025-12-15T20:09:59.930208",
        "meta_mean_motion": 13.27954373,
        "meta_eccentricity": 0.01886062,
        "meta_inclination": 90.3215,
        "meta_ra_of_asc_node": 16.6209,
        "meta_arg_of_pericenter": 158.1904,
        "meta_mean_anomaly": 14.8759,
        "meta_ephemeris_type": 0,
        "meta_classification_type": "U",
        "meta_norad_cat_id": 19071,
        "meta_element_set_no": 999,
        "meta_rev_at_epoch": 82306,
        "meta_bstar": 0.00012723167,
        "meta_mean_motion_dot": 7.3e-07,
        "meta_mean_motion_ddot": 0,
        "tle_line1": "1 19071U 88033B   25349.84027697  .00000073  00000+0  12723-3 0  9993",
        "tle_line2": "2 19071  90.3215  16.6209 0188606 158.1904  14.8759 13.27954373823068"
      },
      "geometry": {
        "type": "Point",
        "coordinates": [
          -160.73681626656042,
          82.99571309751339
        ]
      }
    },
    {
      "type": "Feature",
      "properties": {
        "norad_id": 19223,
        "name": "NOVA 2",
        "group": "nnss",
        "lat": -46.67156940374626,
        "lon": -101.71868127425105,
        "alt_km": 1197.8163811562072,
        "timestamp": "2025-12-16T13:52:37.791978+00:00",
        "meta_object_name": "NOVA 2",
        "meta_object_id": "1988-052A",
        "meta_epoch": "2025-12-15T19:10:57.144864",
        "meta_mean_motion": 13.22936219,
        "meta_eccentricity": 0.00303283,
        "meta_inclination": 89.9872,
        "meta_ra_of_asc_node": 78.2687,
        "meta_arg_of_pericenter": 8.5591,
        "meta_mean_anomaly": 110.632,
        "meta_ephemeris_type": 0,
        "meta_classification_type": "U",
        "meta_norad_cat_id": 19223,
        "meta_element_set_no": 999,
        "meta_rev_at_epoch": 80988,
        "meta_bstar": 6.0924768e-05,
        "meta_mean_motion_dot": 3.4e-07,
        "meta_mean_motion_ddot": 0,
        "tle_line1": "1 19223U 88052A   25349.79927251  .00000034  00000+0  60925-4 0  9997",
        "tle_line2": "2 19223  89.9872  78.2687 0030328   8.5591 110.6320 13.22936219809888"
      },
      "geometry": {
        "type": "Point",
        "coordinates": [
          -101.71868127425105,
          -46.67156940374626
        ]
      }
    },
    {
      "type": "Feature",
      "properties": {
        "norad_id": 19419,
        "name": "OSCAR 25",
        "group": "nnss",
        "lat": -34.40899552053285,
        "lon": -159.7666881391771,
        "alt_km": 1039.3934454726368,
        "timestamp": "2025-12-16T13:52:37.791988+00:00",
        "meta_object_name": "OSCAR 25",
        "meta_object_id": "1988-074A",
        "meta_epoch": "2025-12-15T14:25:09.350688",
        "meta_mean_motion": 13.42623837,
        "meta_eccentricity": 0.00945776,
        "meta_inclination": 90.0345,
        "meta_ra_of_asc_node": 20.2536,
        "meta_arg_of_pericenter": 237.5424,
        "meta_mean_anomaly": 295.6614,
        "meta_ephemeris_type": 0,
        "meta_classification_type": "U",
        "meta_norad_cat_id": 19419,
        "meta_element_set_no": 999,
        "meta_rev_at_epoch": 82678,
        "meta_bstar": 0.00017678292,
        "meta_mean_motion_dot": 1.11e-06,
        "meta_mean_motion_ddot": 0,
        "tle_line1": "1 19419U 88074A   25349.60080267  .00000111  00000+0  17678-3 0  9997",
        "tle_line2": "2 19419  90.0345  20.2536 0094577 237.5424 295.6614 13.42623837826787"
      },
      "geometry": {
        "type": "Point",
        "coordinates": [
          -159.7666881391771,
          -34.40899552053285
        ]
      }
    },
    {
      "type": "Feature",
      "properties": {
        "norad_id": 19420,
        "name": "OSCAR 31",
        "group": "nnss",
        "lat": 82.86483333628937,
        "lon": -159.10301594309172,
        "alt_km": 1138.2102412731256,
        "timestamp": "2025-12-16T13:52:37.791998+00:00",
        "meta_object_name": "OSCAR 31",
        "meta_object_id": "1988-074B",
        "meta_epoch": "2025-12-15T20:22:15.780864",
        "meta_mean_motion": 13.42585028,
        "meta_eccentricity": 0.00929242,
        "meta_inclination": 90.0362,
        "meta_ra_of_asc_node": 20.605,
        "meta_arg_of_pericenter": 230.9572,
        "meta_mean_anomaly": 303.5278,
        "meta_ephemeris_type": 0,
        "meta_classification_type": "U",
        "meta_norad_cat_id": 19420,
        "meta_element_set_no": 999,
        "meta_rev_at_epoch": 82692,
        "meta_bstar": 0.00013905843,
        "meta_mean_motion_dot": 8.9e-07,
        "meta_mean_motion_ddot": 0,
        "tle_line1": "1 19420U 88074B   25349.84879376  .00000089  00000+0  13906-3 0  9996",
        "tle_line2": "2 19420  90.0362  20.6050 0092924 230.9572 303.5278 13.42585028826928"
      },
      "geometry": {
        "type": "Point",
        "coordinates": [
          -159.10301594309172,
          82.86483333628937
        ]
      }
    }
  ]
}